{
  "eventIdTimeAndDetails": [
    {
      "bankAccountId": 115046,
      "accountNumber": 48442612,
      "bank": "The Royal Bank of Scotland",
      "forenames": "Caroline Kathryn",
      "surname": "Mackie",
      "dateOfBirth": "1988-07-27",
      "homeAddress": "30 HATCHET LANE, ST. NEOTS, PE19 5EG",
      "latitude": 51.5389110013533,
      "longitude": -0.142024223807971,
      "idType": "atmID",
      "id": [
        {
          "atmId": 1298,
          "operator": "The Co-operative Bank",
          "streetName": "Greenland Road",
          "postcode": "NW1 0NE",
          "latitude": 51.5389110013533,
          "longitude": -0.142024223807971
        },
        {
          "atmId": 1314,
          "operator": "HSBC Bank",
          "streetName": "Herbrand Street",
          "postcode": "WC1H0LQ",
          "latitude": 51.5233752187118,
          "longitude": -0.125588717117162
        },
        {
          "atmId": 1315,
          "operator": "Barclays Bank",
          "streetName": "Guilford Street",
          "postcode": "B502",
          "latitude": 51.5221284542368,
          "longitude": -0.124126324910203
        },
        {
          "atmId": 1332,
          "operator": "Nationwide Building Society",
          "streetName": "Windmill Street",
          "postcode": "W1T 2BU",
          "latitude": 51.5191679566321,
          "longitude": -0.133083925284975
        },
        {
          "atmId": 1416,
          "operator": "HSBC Bank",
          "streetName": "Kentish Town Road",
          "postcode": "A400",
          "latitude": 51.5395867336038,
          "longitude": -0.14266005024997
        },
        {
          "atmId": 1417,
          "operator": "The Royal Bank of Scotland",
          "streetName": "Camden High Street",
          "postcode": "A502",
          "latitude": 51.5393227486474,
          "longitude": -0.143031314287825
        },
        {
          "atmId": 1418,
          "operator": "Lloyds Bank and TSB",
          "streetName": "Greenland Street",
          "postcode": "NW1 0RR",
          "latitude": 51.5383721654576,
          "longitude": -0.141512620644454
        },
        {
          "atmId": 1430,
          "operator": "Lloyds Bank and TSB",
          "streetName": "Baker Street",
          "postcode": "A41",
          "latitude": 51.5219199773561,
          "longitude": -0.157505837536667
        },
        {
          "atmId": 1446,
          "operator": "HSBC Bank",
          "streetName": "Percy Street",
          "postcode": "W1T 1DS",
          "latitude": 51.5186694008282,
          "longitude": -0.132844862169112
        }
      ],
      "timeStamp": "2015-05-01T14:38:33.000Z"
    },
    {
      "bankAccountId": 612369,
      "accountNumber": 73135838,
      "bank": "The Co-operative Bank",
      "forenames": "Stephanie Nicola",
      "surname": "Moss",
      "dateOfBirth": "1949-11-08",
      "homeAddress": "54 BELGRAVE ROAD, SLOUGH, SL1 3RE",
      "latitude": 51.5233752187118,
      "longitude": -0.125588717117162,
      "idType": "atmID",
      "id": [
        {
          "atmId": 1298,
          "operator": "The Co-operative Bank",
          "streetName": "Greenland Road",
          "postcode": "NW1 0NE",
          "latitude": 51.5389110013533,
          "longitude": -0.142024223807971
        },
        {
          "atmId": 1314,
          "operator": "HSBC Bank",
          "streetName": "Herbrand Street",
          "postcode": "WC1H0LQ",
          "latitude": 51.5233752187118,
          "longitude": -0.125588717117162
        },
        {
          "atmId": 1315,
          "operator": "Barclays Bank",
          "streetName": "Guilford Street",
          "postcode": "B502",
          "latitude": 51.5221284542368,
          "longitude": -0.124126324910203
        },
        {
          "atmId": 1332,
          "operator": "Nationwide Building Society",
          "streetName": "Windmill Street",
          "postcode": "W1T 2BU",
          "latitude": 51.5191679566321,
          "longitude": -0.133083925284975
        },
        {
          "atmId": 1416,
          "operator": "HSBC Bank",
          "streetName": "Kentish Town Road",
          "postcode": "A400",
          "latitude": 51.5395867336038,
          "longitude": -0.14266005024997
        },
        {
          "atmId": 1417,
          "operator": "The Royal Bank of Scotland",
          "streetName": "Camden High Street",
          "postcode": "A502",
          "latitude": 51.5393227486474,
          "longitude": -0.143031314287825
        },
        {
          "atmId": 1418,
          "operator": "Lloyds Bank and TSB",
          "streetName": "Greenland Street",
          "postcode": "NW1 0RR",
          "latitude": 51.5383721654576,
          "longitude": -0.141512620644454
        },
        {
          "atmId": 1430,
          "operator": "Lloyds Bank and TSB",
          "streetName": "Baker Street",
          "postcode": "A41",
          "latitude": 51.5219199773561,
          "longitude": -0.157505837536667
        },
        {
          "atmId": 1446,
          "operator": "HSBC Bank",
          "streetName": "Percy Street",
          "postcode": "W1T 1DS",
          "latitude": 51.5186694008282,
          "longitude": -0.132844862169112
        }
      ],
      "timeStamp": "2015-05-01T14:39:33.000Z"
    },
    {
      "bankAccountId": 728644,
      "accountNumber": 23515465,
      "bank": "Barclays Bank",
      "forenames": "Shirley Natalie",
      "surname": "Thompson",
      "dateOfBirth": "1968-04-26",
      "homeAddress": "13 VICTORIA ROAD, SURBITON, KT6 4JU",
      "latitude": 51.5221284542368,
      "longitude": -0.124126324910203,
      "idType": "atmID",
      "id": [
        {
          "atmId": 1298,
          "operator": "The Co-operative Bank",
          "streetName": "Greenland Road",
          "postcode": "NW1 0NE",
          "latitude": 51.5389110013533,
          "longitude": -0.142024223807971
        },
        {
          "atmId": 1314,
          "operator": "HSBC Bank",
          "streetName": "Herbrand Street",
          "postcode": "WC1H0LQ",
          "latitude": 51.5233752187118,
          "longitude": -0.125588717117162
        },
        {
          "atmId": 1315,
          "operator": "Barclays Bank",
          "streetName": "Guilford Street",
          "postcode": "B502",
          "latitude": 51.5221284542368,
          "longitude": -0.124126324910203
        },
        {
          "atmId": 1332,
          "operator": "Nationwide Building Society",
          "streetName": "Windmill Street",
          "postcode": "W1T 2BU",
          "latitude": 51.5191679566321,
          "longitude": -0.133083925284975
        },
        {
          "atmId": 1416,
          "operator": "HSBC Bank",
          "streetName": "Kentish Town Road",
          "postcode": "A400",
          "latitude": 51.5395867336038,
          "longitude": -0.14266005024997
        },
        {
          "atmId": 1417,
          "operator": "The Royal Bank of Scotland",
          "streetName": "Camden High Street",
          "postcode": "A502",
          "latitude": 51.5393227486474,
          "longitude": -0.143031314287825
        },
        {
          "atmId": 1418,
          "operator": "Lloyds Bank and TSB",
          "streetName": "Greenland Street",
          "postcode": "NW1 0RR",
          "latitude": 51.5383721654576,
          "longitude": -0.141512620644454
        },
        {
          "atmId": 1430,
          "operator": "Lloyds Bank and TSB",
          "streetName": "Baker Street",
          "postcode": "A41",
          "latitude": 51.5219199773561,
          "longitude": -0.157505837536667
        },
        {
          "atmId": 1446,
          "operator": "HSBC Bank",
          "streetName": "Percy Street",
          "postcode": "W1T 1DS",
          "latitude": 51.5186694008282,
          "longitude": -0.132844862169112
        }
      ],
      "timeStamp": "2015-05-01T16:49:59.000Z"
    },
    {
      "bankAccountId": 479275,
      "accountNumber": 16549922,
      "bank": "The Co-operative Bank",
      "forenames": "Rachel Sarah",
      "surname": "George",
      "dateOfBirth": "1947-01-14",
      "homeAddress": "15 HIGHERBROOK CLOSE, BOLTON, BL6 6SQ",
      "latitude": 51.5191679566321,
      "longitude": -0.133083925284975,
      "idType": "atmID",
      "id": [
        {
          "atmId": 1298,
          "operator": "The Co-operative Bank",
          "streetName": "Greenland Road",
          "postcode": "NW1 0NE",
          "latitude": 51.5389110013533,
          "longitude": -0.142024223807971
        },
        {
          "atmId": 1314,
          "operator": "HSBC Bank",
          "streetName": "Herbrand Street",
          "postcode": "WC1H0LQ",
          "latitude": 51.5233752187118,
          "longitude": -0.125588717117162
        },
        {
          "atmId": 1315,
          "operator": "Barclays Bank",
          "streetName": "Guilford Street",
          "postcode": "B502",
          "latitude": 51.5221284542368,
          "longitude": -0.124126324910203
        },
        {
          "atmId": 1332,
          "operator": "Nationwide Building Society",
          "streetName": "Windmill Street",
          "postcode": "W1T 2BU",
          "latitude": 51.5191679566321,
          "longitude": -0.133083925284975
        },
        {
          "atmId": 1416,
          "operator": "HSBC Bank",
          "streetName": "Kentish Town Road",
          "postcode": "A400",
          "latitude": 51.5395867336038,
          "longitude": -0.14266005024997
        },
        {
          "atmId": 1417,
          "operator": "The Royal Bank of Scotland",
          "streetName": "Camden High Street",
          "postcode": "A502",
          "latitude": 51.5393227486474,
          "longitude": -0.143031314287825
        },
        {
          "atmId": 1418,
          "operator": "Lloyds Bank and TSB",
          "streetName": "Greenland Street",
          "postcode": "NW1 0RR",
          "latitude": 51.5383721654576,
          "longitude": -0.141512620644454
        },
        {
          "atmId": 1430,
          "operator": "Lloyds Bank and TSB",
          "streetName": "Baker Street",
          "postcode": "A41",
          "latitude": 51.5219199773561,
          "longitude": -0.157505837536667
        },
        {
          "atmId": 1446,
          "operator": "HSBC Bank",
          "streetName": "Percy Street",
          "postcode": "W1T 1DS",
          "latitude": 51.5186694008282,
          "longitude": -0.132844862169112
        }
      ],
      "timeStamp": "2015-05-01T14:39:56.000Z"
    },
    {
      "bankAccountId": 777988,
      "accountNumber": 4616489,
      "bank": "Citibank International",
      "forenames": "Shaun",
      "surname": "Rogers",
      "dateOfBirth": "1950-09-12",
      "homeAddress": "40 WINTERBOURNE ROAD, THORNTON HEATH, CR7 7QX",
      "latitude": 51.5393227486474,
      "longitude": -0.143031314287825,
      "idType": "atmID",
      "id": [
        {
          "atmId": 1298,
          "operator": "The Co-operative Bank",
          "streetName": "Greenland Road",
          "postcode": "NW1 0NE",
          "latitude": 51.5389110013533,
          "longitude": -0.142024223807971
        },
        {
          "atmId": 1314,
          "operator": "HSBC Bank",
          "streetName": "Herbrand Street",
          "postcode": "WC1H0LQ",
          "latitude": 51.5233752187118,
          "longitude": -0.125588717117162
        },
        {
          "atmId": 1315,
          "operator": "Barclays Bank",
          "streetName": "Guilford Street",
          "postcode": "B502",
          "latitude": 51.5221284542368,
          "longitude": -0.124126324910203
        },
        {
          "atmId": 1332,
          "operator": "Nationwide Building Society",
          "streetName": "Windmill Street",
          "postcode": "W1T 2BU",
          "latitude": 51.5191679566321,
          "longitude": -0.133083925284975
        },
        {
          "atmId": 1416,
          "operator": "HSBC Bank",
          "streetName": "Kentish Town Road",
          "postcode": "A400",
          "latitude": 51.5395867336038,
          "longitude": -0.14266005024997
        },
        {
          "atmId": 1417,
          "operator": "The Royal Bank of Scotland",
          "streetName": "Camden High Street",
          "postcode": "A502",
          "latitude": 51.5393227486474,
          "longitude": -0.143031314287825
        },
        {
          "atmId": 1418,
          "operator": "Lloyds Bank and TSB",
          "streetName": "Greenland Street",
          "postcode": "NW1 0RR",
          "latitude": 51.5383721654576,
          "longitude": -0.141512620644454
        },
        {
          "atmId": 1430,
          "operator": "Lloyds Bank and TSB",
          "streetName": "Baker Street",
          "postcode": "A41",
          "latitude": 51.5219199773561,
          "longitude": -0.157505837536667
        },
        {
          "atmId": 1446,
          "operator": "HSBC Bank",
          "streetName": "Percy Street",
          "postcode": "W1T 1DS",
          "latitude": 51.5186694008282,
          "longitude": -0.132844862169112
        }
      ],
      "timeStamp": "2015-05-01T15:37:29.000Z"
    },
    {
      "bankAccountId": 335292,
      "accountNumber": 84578382,
      "bank": "Clydesdale Bank",
      "forenames": "Kate Wendy",
      "surname": "Green",
      "dateOfBirth": "1989-08-14",
      "homeAddress": "27 ABBOT CLOSE, DERBY, DE21 2BQ",
      "latitude": 51.5186694008282,
      "longitude": -0.132844862169112,
      "idType": "atmID",
      "id": [
        {
          "atmId": 1298,
          "operator": "The Co-operative Bank",
          "streetName": "Greenland Road",
          "postcode": "NW1 0NE",
          "latitude": 51.5389110013533,
          "longitude": -0.142024223807971
        },
        {
          "atmId": 1314,
          "operator": "HSBC Bank",
          "streetName": "Herbrand Street",
          "postcode": "WC1H0LQ",
          "latitude": 51.5233752187118,
          "longitude": -0.125588717117162
        },
        {
          "atmId": 1315,
          "operator": "Barclays Bank",
          "streetName": "Guilford Street",
          "postcode": "B502",
          "latitude": 51.5221284542368,
          "longitude": -0.124126324910203
        },
        {
          "atmId": 1332,
          "operator": "Nationwide Building Society",
          "streetName": "Windmill Street",
          "postcode": "W1T 2BU",
          "latitude": 51.5191679566321,
          "longitude": -0.133083925284975
        },
        {
          "atmId": 1416,
          "operator": "HSBC Bank",
          "streetName": "Kentish Town Road",
          "postcode": "A400",
          "latitude": 51.5395867336038,
          "longitude": -0.14266005024997
        },
        {
          "atmId": 1417,
          "operator": "The Royal Bank of Scotland",
          "streetName": "Camden High Street",
          "postcode": "A502",
          "latitude": 51.5393227486474,
          "longitude": -0.143031314287825
        },
        {
          "atmId": 1418,
          "operator": "Lloyds Bank and TSB",
          "streetName": "Greenland Street",
          "postcode": "NW1 0RR",
          "latitude": 51.5383721654576,
          "longitude": -0.141512620644454
        },
        {
          "atmId": 1430,
          "operator": "Lloyds Bank and TSB",
          "streetName": "Baker Street",
          "postcode": "A41",
          "latitude": 51.5219199773561,
          "longitude": -0.157505837536667
        },
        {
          "atmId": 1446,
          "operator": "HSBC Bank",
          "streetName": "Percy Street",
          "postcode": "W1T 1DS",
          "latitude": 51.5186694008282,
          "longitude": -0.132844862169112
        }
      ],
      "timeStamp": "2015-05-01T15:13:30.000Z"
    }
  ]
}